COSMOS 2426 (717)       
1 29671U 06062B   19241.21954910  .00000062  00000-0  10000-3 0  9999
2 29671  65.0859 277.8223 0021227 179.3805 258.6009  2.12961895 98659
COSMOS 2433 (720)       
1 32275U 07052A   19241.17063579 -.00000020  00000-0  10000-3 0  9995
2 32275  65.8820  38.7009 0001781 197.0111 194.0605  2.13104444 92160
COSMOS 2432 (719)       
1 32276U 07052B   19240.69299403 -.00000017  00000-0  10000-3 0  9995
2 32276  65.8922  38.8016 0008767 341.1411 354.4395  2.13103728 92149
COSMOS 2434 (721)       
1 32393U 07065A   19240.67735130  .00000067  00000-0  00000-0 0  9999
2 32393  64.6912 276.5030 0002818 152.2487 107.8174  2.13103052 90858
COSMOS 2436 (723)       
1 32395U 07065C   19241.38117832  .00000061  00000-0  10000-3 0  9991
2 32395  64.6977 276.5367 0014633 351.3365 141.3281  2.13104447 90805
COSMOS 2456 (730)       
1 36111U 09070A   19241.18126910  .00000004  00000-0  00000+0 0  9996
2 36111  64.2039 156.1295 0004941 313.8935 145.9416  2.13103055 75537
COSMOS 2457 (733)       
1 36112U 09070B   19240.69675906  .00000001  00000-0  00000+0 0  9993
2 36112  64.1863 156.0456 0005032 177.3110  35.5305  2.13101601 75525
COSMOS 2459 (731)       
1 36400U 10007A   19240.89031270 -.00000020  00000-0  10000-3 0  9994
2 36400  65.7853  37.7184 0024638 355.3468  36.0891  2.13102162 73887
COSMOS 2461 (735)       
1 36401U 10007B   19241.04364637 -.00000021  00000-0  10000-3 0  9990
2 36401  65.7790  37.6839 0008641  77.5218 342.0817  2.13102134 73883
COSMOS 2460 (732)       
1 36402U 10007C   19240.97976400 -.00000021  00000-0  10000-3 0  9999
2 36402  65.7696  37.6501 0002450 112.9277 297.3680  2.13101502 73884
COSMOS 2464 (736)       
1 37139U 10041C   19241.34475927  .00000061  00000-0  00000+0 0  9993
2 37139  64.2918 276.0676 0023362   7.6931 270.1358  2.13100705 69955
COSMOS 2474 (742)       
1 37829U 11055A   19240.84731505  .00000002  00000-0  00000+0 0  9991
2 37829  64.5250 157.0420 0009409 248.4024 171.3210  2.13101938 61525
COSMOS 2476 (744)       
1 37867U 11064A   19240.60339272  .00000001  00000-0  00000-0 0  9992
2 37867  64.5052 157.0999 0019752 241.1354  37.6318  2.13102043 60863
COSMOS 2477 (745)       
1 37868U 11064B   19240.86537753  .00000002  00000-0  00000+0 0  9995
2 37868  64.5137 157.1450 0017417 242.4182  55.9778  2.13101914 60825
COSMOS 2475 (743)       
1 37869U 11064C   19241.15328957  .00000004  00000-0  00000+0 0  9995
2 37869  64.5206 157.1339 0021558 264.6838 211.7503  2.13102293 60845
COSMOS 2485 (747)       
1 39155U 13019A   19240.77195623  .00000002  00000-0  00000+0 0  9994
2 39155  64.6748 157.2991 0020123 236.7853 215.9992  2.13102103 49346
COSMOS 2492 (754)       
1 39620U 14012A   19240.69676551 -.00000020  00000-0  10000-3 0  9996
2 39620  65.6577  37.4827 0011848 332.8536  97.3301  2.13103305 42299
COSMOS 2500 (755)       
1 40001U 14032A   19240.77820493 -.00000020  00000-0  00000+0 0  9993
2 40001  65.6016  37.4169 0006424 184.6904 169.2447  2.13102658 40509
COSMOS 2501 (702K)      
1 40315U 14075A   19240.70847256  .00000065  00000-0  00000-0 0  9996
2 40315  64.0126 277.1440 0017810 209.8694 247.9275  2.13098718 36918
COSMOS 2514 (751)       
1 41330U 16008A   19241.01716354 -.00000023  00000-0  00000+0 0  9995
2 41330  65.4050  37.3553 0009734 201.7907 157.2965  2.13103294 27670
COSMOS 2516 (753)       
1 41554U 16032A   19240.60369800  .00000066  00000-0  00000+0 0  9990
2 41554  64.2341 277.1350 0014854 220.3235  72.1335  2.13101790 25276
COSMOS 2522 (752)       
1 42939U 17055A   19241.21795610  .00000061  00000-0  00000+0 0  9999
2 42939  64.4663 277.2055 0009780 242.8737  27.3254  2.13102034 15042
COSMOS 2527 (756)       
1 43508U 18053A   19240.53117126  .00000000  00000-0  00000+0 0  9998
2 43508  64.8376 157.0941 0007936 238.1832 256.4924  2.13102653  9324
COSMOS 2529 (757)       
1 43687U 18086A   19241.28275583  .00000061  00000-0  00000+0 0  9994
2 43687  64.6781 277.2481 0011894 263.8394  11.7663  2.13102065  6359
COSMOS 2534 (758)       
1 44299U 19030A   19241.17967584  .00000063  00000-0  00000+0 0  9993
2 44299  64.7476 277.0394 0014481 281.6713  50.0592  2.13102044  1999
